[{"OBJECT_NAME":"SWISSCUBE","OBJECT_ID":"2009-051B","EPOCH":"2026-03-09T16:23:13.335936","MEAN_MOTION":14.62259637,"ECCENTRICITY":0.00070545,"INCLINATION":98.4094,"RA_OF_ASC_NODE":334.8256,"ARG_OF_PERICENTER":152.7663,"MEAN_ANOMALY":207.3909,"EPHEMERIS_TYPE":0,"CLASSIFICATION_TYPE":"U","NORAD_CAT_ID":35932,"ELEMENT_SET_NO":999,"REV_AT_EPOCH":87461,"BSTAR":0.00032657986,"MEAN_MOTION_DOT":1.598e-5,"MEAN_MOTION_DDOT":0},{"OBJECT_NAME":"SL-16 DEB","OBJECT_ID":"1992-093KL","EPOCH":"2026-02-27T01:47:11.961600","MEAN_MOTION":14.58141712,"ECCENTRICITY":0.0022669,"INCLINATION":70.785,"RA_OF_ASC_NODE":208.121,"ARG_OF_PERICENTER":22.7229,"MEAN_ANOMALY":337.4913,"EPHEMERIS_TYPE":0,"CLASSIFICATION_TYPE":"U","NORAD_CAT_ID":39720,"ELEMENT_SET_NO":999,"REV_AT_EPOCH":62636,"BSTAR":0.00075373316,"MEAN_MOTION_DOT":3.431e-5,"MEAN_MOTION_DDOT":0}]
